ORBCOMM-X               
1 21576U 91050C   24139.18267088  .00001130  00000+0  35393-3 0  9995
2 21576  98.3906 206.8888 0002578 312.5878  47.5094 14.42510960725379
ORBCOMM FM01            
1 23545U 95017A   24139.54549457  .00015478  00000+0  20402-2 0  9997
2 23545  69.9682 330.7159 0007824 218.1680 141.8916 14.80153199554269
ORBCOMM FM02            
1 23546U 95017B   24138.90063946  .00015190  00000+0  20209-2 0  9997
2 23546  69.9708 351.7359 0009574 210.1796 149.8803 14.79758364553465
ORBCOMM FM08            
1 25112U 97084A   24139.15298187  .00005436  00000+0  16622-2 0  9995
2 25112  45.0134  99.6072 0007279  41.1232 319.0165 14.42610702384435
ORBCOMM FM10            
1 25113U 97084B   24138.88333621  .00005816  00000+0  17786-2 0  9992
2 25113  45.0145 102.7561 0005847   7.5716 352.5222 14.42520497559373
ORBCOMM FM11            
1 25114U 97084C   24138.62560266  .00004190  00000+0  12972-2 0  9998
2 25114  45.0130 104.0607 0006624   8.3484 351.7475 14.42385553384301
ORBCOMM FM12            
1 25115U 97084D   24138.58564075  .00004443  00000+0  13741-2 0  9992
2 25115  45.0137 103.9505 0005681   6.2978 353.7943 14.42353279384336
ORBCOMM FM09            
1 25116U 97084E   24138.59710892  .00004510  00000+0  13948-2 0  9998
2 25116  45.0142 104.5841 0007018 356.1162   3.9632 14.42317646384338
